BEIDOU-2 IGSO-6         
1 41434U 16021A   23157.55899781 -.00000158  00000+0  00000+0 0  9999
2 41434  58.6173  49.1852 0045611 223.7967 275.8603  1.00257100 26386
IRNSS-1G                
1 41469U 16027A   23158.42383566 -.00000331  00000+0  00000+0 0  9992
2 41469   2.6568 136.0514 0006979 319.8272  81.7036  1.00265646 26087
JCSAT-2B                
1 41471U 16028A   23157.83938258 -.00000160  00000+0  00000+0 0  9994
2 41471   0.0160 350.6210 0001239  97.1609 263.3787  1.00269620 26022
THAICOM 8               
1 41552U 16031A   23157.86299395 -.00000116  00000+0  00000+0 0  9994
2 41552   0.0556  26.6903 0004930  35.9911 221.5062  1.00272902 25621
INTELSAT 31 (IS-31)     
1 41581U 16035A   23158.01577003 -.00000146  00000+0  00000+0 0  9996
2 41581   0.0233 268.3419 0001332 322.0096 295.4313  1.00271380 25593
BEIDOU-2 G7             
1 41586U 16037A   23157.87005808 -.00000348  00000+0  00000+0 0  9999
2 41586   1.6674  66.8384 0009102 355.7172 256.1575  1.00266157 25698
ABS-2A (MONGOLSAT-1)    
1 41588U 16038A   23157.86299395 -.00000078  00000+0  00000+0 0  9997
2 41588   0.0211 325.9548 0001505   9.5138 304.9496  1.00268615 25613
EUTELSAT 117 WEST B     
1 41589U 16038B   23157.65794875 -.00000004  00000+0  00000+0 0  9997
2 41589   0.0073 152.5721 0000179 123.8590  98.2258  1.00270288 25578
BRISAT                  
1 41591U 16039A   23158.11438448 -.00000192  00000+0  00000+0 0  9992
2 41591   0.0213 334.2291 0002425  97.9094  14.7817  1.00269260 25554
ECHOSTAR 18             
1 41592U 16039B   23158.05466045 -.00000277  00000+0  00000+0 0  9994
2 41592   0.0151 343.0824 0001766 101.0920 129.3445  1.00271532 25520
MUOS-5                  
1 41622U 16041A   23157.51693713 -.00000112  00000+0  00000+0 0  9993
2 41622   4.7769 298.4870 0195440 243.0773 154.2101  1.00271337 25990
TIANTONG-1 1            
1 41725U 16048A   23157.84480413 -.00000314  00000+0  00000+0 0  9995
2 41725   2.3002  14.7646 0004333  20.2611 265.5272  1.00271942 25171
JCSAT-16                
1 41729U 16050A   23158.42174372 -.00000348  00000+0  00000+0 0  9998
2 41729   0.1559  92.8866 0000385  54.9523  18.6349  1.00535502 24972
USA 270                 
1 41744U 16052A   23158.28603465 -.00000154  00000+0  00000+0 0  9996
2 41744   1.3492  91.3914 0001517  35.0346  29.4628  1.00156614  7656
USA 271                 
1 41745U 16052B   23146.28313310  .00000144  00000+0  00000+0 0  9999
2 41745   1.2912  91.4369 0000175  48.1571 242.7984  1.00592641 16718
INTELSAT 36 (IS-36)     
1 41747U 16053A   23158.05329580 -.00000019  00000+0  00000+0 0  9998
2 41747   0.0116 353.4386 0001763   9.9194 339.5127  1.00270143 24851
INTELSAT 33E (IS-33E)   
1 41748U 16053B   23158.05155250  .00000054  00000+0  00000+0 0  9998
2 41748   0.0089 353.4021 0002507  93.1118 247.2315  1.00270666 25120
INSAT-3DR               
1 41752U 16054A   23158.05442894 -.00000072  00000+0  00000+0 0  9998
2 41752   0.0895  99.3369 0010317 173.8418  75.6410  1.00271470 24704
GSAT-18                 
1 41793U 16060A   23158.05434177 -.00000072  00000+0  00000+0 0  9995
2 41793   0.0655 106.9918 0002016 318.2747 283.4732  1.00271000 24441
SKY MUSTER 2 (NBN1B)    
1 41794U 16060B   23157.83938258 -.00000239  00000+0  00000+0 0  9995
2 41794   0.0117 302.0127 0001814 134.7484 265.2101  1.00270128 24426
HIMAWARI-9              
1 41836U 16064A   23158.28272238 -.00000271  00000+0  00000+0 0  9991
2 41836   0.0078 304.0819 0001247 160.9459  32.9147  1.00270343 24217
SHIJIAN-17 (SJ-17)      
1 41838U 16065A   23157.88017087 -.00000357  00000+0  00000+0 0  9993
2 41838   2.9259  85.7517 0001275 144.6614  96.7852  1.00272061 24111
GOES 16                 
1 41866U 16071A   23158.31141817 -.00000244  00000+0  00000+0 0  9994
2 41866   0.0512  95.9683 0000550 358.8154 197.5912  1.00271334 24011
TIANLIAN 1-04           
1 41869U 16072A   23158.43452247  .00000035  00000+0  00000+0 0  9990
2 41869   0.1472 259.9314 0028001 232.4082  96.4741  1.00272764 24229
WGS F8 (USA 272)        
1 41879U 16075A   23158.29771561 -.00000198  00000+0  00000+0 0  9992
2 41879   0.0049   9.2387 0000158 296.3668 206.8137  1.00271523 23831
FENGYUN 4A              
1 41882U 16077A   23157.84541428 -.00000324  00000+0  00000+0 0  9996
2 41882   0.0573 315.3672 0004310 190.2258 158.4731  1.00267418 23836
ECHOSTAR 19             
1 41893U 16079A   23157.87695605 -.00000133  00000+0  00000+0 0  9998
2 41893   0.0268  71.0450 0001595  22.5010  20.0819  1.00270812 23646
JCSAT-110A (JCSAT-15)   
1 41903U 16082A   23158.05882663 -.00000346  00000+0  00000+0 0  9993
2 41903   0.0182 327.2322 0000863 123.6309 295.5788  1.00269749 23694
STAR ONE D1             
1 41904U 16082B   23158.02289729 -.00000205  00000+0  00000+0 0  9999
2 41904   0.0251 301.2149 0001870 139.5108  98.6721  1.00270619 23690
TJS-2                   
1 41911U 17001A   23158.39354949 -.00000002  00000+0  00000+0 0  9991
2 41911   0.4473  87.9766 0004524 110.8220 264.8927  1.00269995 23631
SBIRS GEO-4 (USA 273)   
1 41937U 17004A   23158.37202324 -.00000140  00000+0  00000+0 0  9992
2 41937   1.7358 331.3146 0002187 103.2668 218.0593  1.00270812 23515
HISPASAT 36W-1          
1 41942U 17006A   23157.36993755 -.00000236  00000+0  00000+0 0  9999
2 41942   0.0015  69.3052 0000932   2.5913 279.8139  1.00269747 23434
TELKOM 3S               
1 41944U 17007A   23158.42156938 -.00000359  00000+0  00000+0 0  9990
2 41944   0.0163 352.4114 0002325  88.8178  84.0865  1.00268769 23124
INTELSAT 32E (IS-32E)   
1 41945U 17007B   23158.03109267 -.00000264  00000+0  00000+0 0  9996
2 41945   0.0153  12.4650 0000286   9.7433 200.9731  1.00268814 23157
ECHOSTAR 23             
1 42070U 17014A   23157.51597831 -.00000049  00000+0  00000+0 0  9995
2 42070   0.0191 354.0932 0002188  81.1235 255.3090  1.00265815 22827
WGS F9 (USA 275)        
1 42075U 17016A   23157.67886830 -.00000090  00000+0  00000+0 0  9995
2 42075   0.0212 354.7447 0000402  84.0974  48.3823  1.00269275 22809
SES-10                  
1 42432U 17017A   23158.05466045 -.00000268  00000+0  00000+0 0  9995
2 42432   0.0223  42.5690 0003129  40.6633 124.7455  1.00269172 22636
CHINASAT 16 (SJ-13)     
1 42662U 17018A   23157.77493685 -.00000346  00000+0  00000+0 0  9996
2 42662   0.0706  95.7923 0003644 142.1394  46.4556  1.00265906 22633
KOREASAT 7              
1 42691U 17023A   23158.05326929 -.00000357  00000+0  00000+0 0  9994
2 42691   0.0375  41.8484 0001276 343.5020   4.9161  1.00270723 22356
SGDC                    
1 42692U 17023B   23157.50064143 -.00000242  00000+0  00000+0 0  9994
2 42692   0.0111 349.4810 0002443  92.6975 277.8550  1.00270786 22355
GSAT-9                  
1 42695U 17024A   23157.84401964 -.00000281  00000+0  00000+0 0  9994
2 42695   0.0165  85.2527 0001248 330.4799 240.4627  1.00271407 22213
INMARSAT 5-F4           
1 42698U 17025A   23158.05094235  .00000081  00000+0  00000+0 0  9998
2 42698   0.0173 348.0349 0000274 308.8507  33.1392  1.00268904 22169
SES-15                  
1 42709U 17026A   23157.65550814  .00000067  00000+0  00000+0 0  9991
2 42709   0.0251  27.2326 0000553  53.6134 280.7973  1.00269687 23043
QZS-2 (MICHIBIKI-2)     
1 42738U 17028A   23154.57633417 -.00000167  00000+0  00000+0 0  9996
2 42738  41.1908 259.1923 0760905 269.0160  71.0309  1.00289039 22018
VIASAT-2                
1 42740U 17029A   23157.81072271 -.00000259  00000+0  00000+0 0  9997
2 42740   0.0164 292.6089 0000266 174.6215   9.6977  1.00270559 22096
EUTELSAT 172B           
1 42741U 17029B   23157.85883766  .00000000  00000+0  00000+0 0  9994
2 42741   0.0688 155.1419 0000297 296.7103 284.3370  1.00270311 22628
GSAT-19                 
1 42747U 17031A   23157.83417001  .00000131  00000+0  00000+0 0  9991
2 42747   0.0348 258.3641 0007847 177.2360 167.5768  1.00272194 22046
ECHOSTAR 21             
1 42749U 17032A   23158.04285411  .00000071  00000+0  00000+0 0  9999
2 42749   3.2488 313.5172 0002552 116.8595 210.5066  1.00269831 22031
BULGARIASAT-1           
1 42801U 17038A   23158.00327031  .00000016  00000+0  00000+0 0  9994
2 42801   0.0686  96.6713 0002607 337.5889 183.9692  1.00270110 21819
HELLAS-SAT 3            
1 42814U 17040A   23158.07827226  .00000157  00000+0  00000+0 0  9995
2 42814   0.0535 353.9781 0005201  60.3354 268.0724  1.00270886 21766
GSAT-17                 
1 42815U 17040B   23158.52492810 -.00000255  00000+0  00000+0 0  9993
2 42815   0.0642 105.9439 0002038 199.2354 232.9665  1.00270984 21783
INTELSAT 35E (IS-35E)   
1 42818U 17041A   23157.67433573 -.00000231  00000+0  00000+0 0  9997
2 42818   0.0181 349.9386 0001527  81.6496  31.4947  1.00270896 21729
COSMOS 2520             
1 42907U 17046A   23157.85049411  .00000142  00000+0  00000+0 0  9995
2 42907   0.0201  86.1771 0000581  39.6551 120.3524  1.00273574 21302
TDRS 13                 
1 42915U 17047A   23157.82240278 -.00000093  00000+0  00000+0 0  9992
2 42915   4.0152 337.7628 0019344 114.3453  87.5270  1.00270947 21252
QZS-3 (MICHIBIKI-3)     
1 42917U 17048A   23157.86893531 -.00000342  00000+0  00000+0 0  9992
2 42917   0.0627 203.1546 0001486 244.3823 247.3303  1.00273151 21168
AMAZONAS 5              
1 42934U 17053A   23157.52574078 -.00000275  00000+0  00000+0 0  9997
2 42934   0.0295 328.3663 0003144  67.5471 347.0253  1.00269254 20963
ASIASAT 9               
1 42942U 17057A   23158.05326929 -.00000355  00000+0  00000+0 0  9998
2 42942   0.0039  23.0892 0002478  47.1229 326.2637  1.00270933 20854
INTELSAT 37E (IS-37E)   
1 42950U 17059A   23158.25945300 -.00000137  00000+0  00000+0 0  9999
2 42950   0.0179   3.8086 0002521  87.1945 239.8002  1.00269808 20952
BSAT-4A                 
1 42951U 17059B   23157.87836057 -.00000345  00000+0  00000+0 0  9996
2 42951   0.0620  53.5983 0004940   8.1432 259.3370  1.00271664 20704
QZS-4 (MICHIBIKI-4)     
1 42965U 17062A   23158.42374851 -.00000326  00000+0  00000+0 0  9995
2 42965  40.6662 357.5692 0745194 271.3256 276.6437  1.00255731 20714
